# From MPEC 2022-S20
C/1995 O1 (Hale-Bopp),e,89.3853,282.5295,130.4094,176.8720,0.0004190,0.99496846,0.0000,03/29.5523/1997,2000,g -2.0,4.0
# From NK 1615
P/1996 R2 (Lagerkvist),e,2.6009,40.0087,333.4166,3.774436,0.1344083,0.31460603,197.1344,02/19.0/2023,2000,g 11.5,4.0
# From MPC 75703
P/1998 VS24 (LINEAR),e,5.0265,159.0367,244.6534,4.524710,0.1024042,0.24332977,189.9715,02/19.0/2023,2000,g 13.0,2.0
# From NK 731
P/1999 RO28 (LONEOS),e,7.5648,137.8627,231.3147,3.426397,0.1553988,0.67253572,207.1126,02/19.0/2023,2000,g 20.0,2.0
# From MPC 75704
P/1999 XN120 (Catalina),e,5.0299,285.2966,161.6691,4.178976,0.1153717,0.21050715,240.2549,02/19.0/2023,2000,g 13.5,2.0
# From NK 744
P/2000 R2 (LINEAR),e,11.6856,160.2853,176.5965,3.467864,0.1526198,0.53131046,204.8299,02/19.0/2023,2000,g 18.0,4.0
# From MPC 43019
P/2001 H5 (NEAT),e,8.3670,328.6839,224.7053,6.095707,0.0654889,0.59820930,175.9407,02/19.0/2023,2000,g 12.0,4.0
# From MPC 75704
P/2001 Q6 (NEAT),e,56.9114,22.1852,42.9416,7.960793,0.0438803,0.82343425,343.5734,02/19.0/2023,2000,g 13.5,4.0
# From MPC 47727
P/2002 EJ57 (LINEAR),e,4.9786,330.2976,167.2753,6.461879,0.0600020,0.59252700,102.4595,02/19.0/2023,2000,g 12.5,4.0
# From MPC109588
P/2002 T6 (NEAT-LINEAR),e,10.8551,206.0512,219.4751,7.745180,0.0457253,0.56316919,336.3922,02/19.0/2023,2000,g 10.5,4.0
# From MPC 75007
C/2002 VQ94 (LINEAR),e,70.7031,35.1539,99.9449,184.3595,0.0003937,0.96312122,2.4521,02/19.0/2023,2000,g  9.5,2.0
# From MPC 50354
P/2003 F2 (NEAT),e,11.6141,358.9824,192.2672,6.501187,0.0594587,0.54130391,71.0518,02/19.0/2023,2000,g 16.5,2.0
# From MPC 50139
P/2003 QX29 (NEAT),e,11.3948,264.5041,37.6883,8.013177,0.0434507,0.47238007,320.9052,02/19.0/2023,2000,g  8.5,4.0
# From MPC105235
P/2003 T12 (SOHO),e,11.0222,174.5841,219.7573,2.585242,0.2371113,0.77020961,241.2695,02/19.0/2023,2000,g 17.0,4.0
# From MPC 54558
P/2004 DO29 (Spacewatch-LINEAR),e,14.5301,147.3786,40.4736,7.298747,0.0499841,0.44142973,336.4819,02/19.0/2023,2000,g 13.5,2.0
# From MPEC 2022-YN2
P/2004 FY140 (LINEAR),e,2.1619,327.2711,254.2303,4.969255,0.0889748,0.19158424,229.5804,02/19.0/2023,2000,g 12.5,2.0
# From MPC 53304
P/2004 R3 (LINEAR-NEAT),e,12.7830,305.3020,37.6246,4.761156,0.0948714,0.25530132,49.0514,02/19.0/2023,2000,g 14.5,4.0
# From MPC 55521
P/2004 V3 (Siding Spring),e,50.4439,356.1279,322.5126,7.127636,0.0517948,0.44579854,345.6411,02/19.0/2023,2000,g 11.5,4.0
# From MPC 75705
P/2004 V5 (LINEAR-Hill),e,19.3460,47.7760,87.5338,7.993853,0.0436084,0.44521965,288.6682,02/19.0/2023,2000,g  8.0,4.0
# From MPC 54164
P/2005 E1 (Tubbiolo),e,4.2626,335.5779,193.8583,7.053083,0.0526181,0.37578635,348.3655,02/19.0/2023,2000,g 10.0,4.0
# From MPC 79019
P/2005 J1 (McNaught),e,31.7346,268.8290,338.9157,3.572292,0.1459767,0.56894885,232.4113,02/19.0/2023,2000,g 16.5,4.0
# From MPC 74246
P/2005 L1 (McNaught),e,7.7134,138.1094,150.4907,3.999307,0.1232330,0.21396995,57.8439,02/19.0/2023,2000,g  9.5,4.0
# From MPC 75706
P/2005 S2 (Skiff),e,3.1356,161.2219,229.5258,8.002270,0.0435396,0.19871707,265.9709,02/19.0/2023,2000,g  7.5,4.0
# From MPC 75706
P/2005 SB216 (LONEOS),e,24.1172,1.1194,83.2260,7.148135,0.0515721,0.46485572,305.2714,02/19.0/2023,2000,g 12.0,2.0
# From MPC 73461
P/2005 T3 (Read),e,6.2242,27.6547,6.7068,7.588548,0.0471483,0.17549409,300.0050,02/19.0/2023,2000,g  9.0,4.0
# From MPC 73461
P/2005 T4 (SWAN),e,160.2746,25.9356,41.8601,9.357975,0.0344295,0.92986789,218.2776,02/19.0/2023,2000,g 15.0,4.0
# From MPC 75706
P/2005 T5 (Broughton),e,21.3816,57.0028,304.7211,7.277846,0.0501995,0.55263070,317.5138,02/19.0/2023,2000,g 11.0,4.0
# From MPC 75707
P/2006 HR30 (Siding Spring),e,31.8721,309.8086,117.4096,7.807689,0.0451773,0.84327034,266.9775,02/19.0/2023,2000,g 11.0,4.0
# From MPC 75707
P/2007 C2 (Catalina),e,8.6050,275.2736,180.1808,7.001314,0.0532028,0.47236057,300.0004,02/19.0/2023,2000,g 10.0,4.0
# From MPC 84315
C/2007 D1 (LINEAR),e,41.5019,171.2230,339.7595,1167,0.0000247,0.99247707,0.0000,06/07.4521/2007,2000,g  3.5,4.0
# From MPC 82314
P/2007 K2 (Gibbs),e,7.6275,188.6344,347.3270,7.279192,0.0501856,0.68331177,289.2642,02/19.0/2023,2000,g 14.0,4.0
# From MPC 60925
P/2007 Q2 (Gilmore),e,10.2025,172.1547,162.8717,5.658582,0.0732222,0.66991798,59.6100,02/19.0/2023,2000,g 16.0,4.0
# From MPC 73462
P/2007 S1 (Zhao),e,5.9610,141.3433,245.1983,3.818378,0.1320948,0.33879703,17.8611,02/19.0/2023,2000,g 13.0,4.0
# From MPC 61994
P/2007 T2 (Kowalski),e,9.7516,3.3756,359.6740,3.045144,0.1854780,0.78568437,309.6223,02/19.0/2023,2000,g 18.5,4.0
# From MPC 75709
P/2008 L2 (Hill),e,25.8683,218.0157,141.2632,6.030398,0.0665557,0.61363577,354.6058,02/19.0/2023,2000,g 12.5,4.0
# From MPC 64114
P/2008 O3 (Boattini),e,32.3414,47.5614,341.1855,8.214111,0.0418662,0.69648107,224.9490,02/19.0/2023,2000,g 13.0,4.0
# From MPC 75710
P/2008 Y3 (McNaught),e,38.7812,262.8717,238.0154,8.047149,0.0431759,0.44609199,223.6473,02/19.0/2023,2000,g  8.5,4.0
# From MPC 75710
P/2009 B1 (Boattini),e,22.2410,297.0716,128.9184,6.736396,0.0563719,0.63576559,290.8018,02/19.0/2023,2000,g 13.0,4.0
# From MPC 66466
C/2009 G1 (STEREO),e,108.4295,120.6013,175.5221,469.2638,0.0000970,0.99757263,0.0000,04/18.8709/2009,2000,g  9.0,4.0
# From MPC 75710
P/2009 O3 (Hill),e,16.2888,183.6849,154.4988,7.766839,0.0455342,0.68763220,228.2481,02/19.0/2023,2000,g 12.5,4.0
# From MPC 68902
P/2009 Q5 (McNaught),e,40.9797,160.2658,209.1328,7.428482,0.0486804,0.60992051,238.7049,02/19.0/2023,2000,g 10.0,4.0
# From MPC112389
P/2009 T2 (La Sagra),e,27.6111,215.9109,216.3247,7.717276,0.0459736,0.76668742,220.5292,02/19.0/2023,2000,g 14.0,4.0
# From MPC105235
P/2009 WX51 (Catalina),e,9.5953,31.5547,118.2671,3.082768,0.1820928,0.73931352,150.2828,02/19.0/2023,2000,g 19.0,2.0
# From MPC 74247
P/2009 Y2 (Kowalski),e,29.9686,262.0487,172.1415,6.548858,0.0588106,0.63694662,278.7189,02/19.0/2023,2000,g 13.0,4.0
# From MPC 75711
P/2010 A3 (Hill),e,14.8149,63.6124,42.2939,6.088491,0.0656054,0.73382567,310.6838,02/19.0/2023,2000,g 14.0,4.0
# From MPC 75008
P/2010 C1 (Scotti),e,9.1231,141.8533,3.2828,7.107084,0.0520196,0.26098972,253.1156,02/19.0/2023,2000,g  9.5,4.0
# From MPC 75008
P/2010 D2 (WISE),e,57.1039,319.8810,119.9180,6.721999,0.0565531,0.45151518,269.4331,02/19.0/2023,2000,g 16.0,4.0
# From MPC 75009
P/2010 E2 (Jarnac),e,15.3861,177.8206,8.2830,8.640125,0.0388082,0.71945639,183.0579,02/19.0/2023,2000,g 14.0,4.0
# From MPC 72851
P/2010 H2 (Vales),e,14.2799,64.1866,128.0200,3.831876,0.1313974,0.19682654,261.4766,02/19.0/2023,2000,g  6.0,4.0
# From MPC 70361
P/2010 H3 (SOHO),e,23.0993,77.1229,26.1170,3.036154,0.1863024,0.98540825,0.0000,02/07.8490/2021,2000,g 20.0,2.0
# From MPC 73463
P/2010 H4 (Scotti),e,2.3178,44.7260,179.2396,6.602553,0.0580947,0.26605205,269.8238,02/19.0/2023,2000,g 10.5,4.0
# From MPC 74637
P/2010 H5 (Scotti),e,14.0568,24.7922,174.6152,7.172695,0.0513075,0.15254455,242.4934,02/19.0/2023,2000,g 13.0,2.0
# From MPC 98558
P/2010 J3 (McMillan),e,13.2585,106.4815,157.5619,8.981833,0.0366148,0.72524056,167.0589,02/19.0/2023,2000,g 11.0,4.0
# From MPC 84315
P/2010 JC81 (WISE),e,38.8304,30.8716,12.4344,8.105129,0.0427134,0.77804940,184.3697,02/19.0/2023,2000,g  9.0,4.0
# From MPC 74248
P/2010 T2 (PANSTARRS),e,7.8912,58.4718,352.4159,5.585863,0.0746567,0.32477793,330.9826,02/19.0/2023,2000,g 11.5,4.0
# From MPEC 2023-B57
P/2010 TO20 (LINEAR-Grauer),e,2.4788,43.2795,267.5688,5.832623,0.0699694,0.05565490,5.7762,02/19.0/2023,2000,g  9.0,4.0
# From MPC 82316
P/2010 U1 (Boattini),e,8.2220,280.6748,86.3371,6.499506,0.0594817,0.24918410,282.9401,02/19.0/2023,2000,g  9.5,4.0
# From MPEC 2022-YN2
C/2010 U3 (Boattini),e,55.5604,42.9908,88.0371,2827,0.0000066,0.99701477,0.0000,02/25.4051/2019,2000,g  1.0,4.0
# From MPC 79021
P/2010 UH55 (Spacewatch),e,8.0379,232.8994,225.1480,6.654404,0.0574170,0.56391382,249.1053,02/19.0/2023,2000,g 11.0,4.0
# From MPC 75009
P/2010 WK (LINEAR),e,11.4017,11.3313,40.9939,5.762100,0.0712579,0.69058404,323.0635,02/19.0/2023,2000,g 14.5,2.0
# From MPC 84021
P/2011 C2 (Gibbs),e,10.8877,12.1199,160.4038,7.412678,0.0488361,0.26928546,199.5114,02/19.0/2023,2000,g  9.0,4.0
# From MPC 79866
P/2011 FR143 (Lemmon),e,15.9757,190.9492,349.8873,6.864875,0.0547968,0.45084575,240.4327,02/19.0/2023,2000,g 14.0,2.0
# From MPC 82317
P/2011 JB15 (Spacewatch-Boattini),e,19.1450,153.5953,111.0175,7.368490,0.0492761,0.31560223,199.7525,02/19.0/2023,2000,g  9.0,4.0
# From MPC 87913
P/2011 N1 (ASH),e,35.7761,77.5762,330.4080,6.243387,0.0631791,0.54519240,247.8234,02/19.0/2023,2000,g 11.5,4.0
# From MPC 75714
P/2011 NO1 (Elenin),e,15.2446,295.8267,263.7040,5.533714,0.0757145,0.77469406,334.9396,02/19.0/2023,2000,g 15.0,4.0
# From MPEC 2022-ED3
P/2011 P1 (McNaught),e,5.6603,4.2302,349.1779,7.458667,0.0483852,0.32762654,221.7348,02/19.0/2023,2000,g  9.0,4.0
# From MPEC 2022-HC2
P/2011 S1 (Gibbs),e,2.6881,218.8204,192.5513,8.583758,0.0391911,0.20164130,121.8251,02/19.0/2023,2000,g  8.0,4.0
# From MPC 79022
P/2011 UA134 (Spacewatch-PANSTARRS),e,10.4403,40.3965,32.4077,5.609977,0.0741758,0.62988608,305.9309,02/19.0/2023,2000,g 17.5,4.0
# From MPC 77406
P/2011 V1 (Boattini),e,7.3750,46.7767,269.3896,3.857561,0.1300873,0.54991912,208.2426,02/19.0/2023,2000,g 15.5,4.0
# From MPC 82718
P/2011 W1 (PANSTARRS),e,3.7186,161.7849,282.8050,4.667402,0.0977443,0.28820687,36.7474,02/19.0/2023,2000,g 11.5,4.0
# From MPC 79342
P/2011 Y2 (Boattini),e,6.3799,309.3174,131.9701,6.237242,0.0632725,0.71049236,253.2743,02/19.0/2023,2000,g 15.0,4.0
# From MPEC 2022-K19
P/2012 B1 (PANSTARRS),e,7.6102,36.2165,162.3315,6.532209,0.0590356,0.40906367,207.3877,02/19.0/2023,2000,g  9.0,4.0
# From MPC 78590
P/2012 C3 (PANSTARRS),e,9.0920,135.3677,344.9542,9.748681,0.0323806,0.63011148,359.9758,10/06.0/2011,2000,g 13.0,4.0
# From MPC 84931
P/2012 F2 (PANSTARRS),e,14.6988,226.9744,33.3131,6.337113,0.0617827,0.54080836,222.7273,02/19.0/2023,2000,g 12.0,4.0
# From MPEC 2022-ED3
P/2012 G1 (PANSTARRS),e,12.1713,283.2710,266.1132,4.164962,0.1159545,0.32924317,101.1178,02/19.0/2023,2000,g 15.0,4.0
# From MPC 80898
